LEMUR-2-ROUNDTRIPPER    
1 62711U 25009DG  26188.18676830  .00006648  00000+0  48362-3 0  9996
2 62711  97.7223 270.8397 0004458  82.7690 277.4043 15.04138808 80630
LEMUR-2-MYNAMEISJEFF    
1 62712U 25009DH  26188.18521056  .00006692  00000+0  48688-3 0  9996
2 62712  97.7276 271.2311 0003603 116.4406 243.7189 15.04131043 80632
LEMUR-2-LEIA-PHILIP     
1 63246U 25052AN  26188.11769153  .00001985  00000+0  17584-3 0  9993
2 63246  97.6816  79.7311 0004857 140.0077 220.1504 14.97375287 71657
LEMUR-2-LIA-MARTIN      
1 63248U 25052AQ  26187.64800424  .00004626  00000+0  39684-3 0  9999
2 63248  97.6861  79.7730 0005203 111.5295 248.6482 14.97976249 71593
LEMUR-2-DELOITTE-1      
1 63259U 25052BB  26187.69387655  .00003288  00000+0  28529-3 0  9991
2 63259  97.6883  80.1499 0002286  65.5794 294.5666 14.97742162 71619
LEMUR-2-EMERSONROSE     
1 63261U 25052BD  26188.18377090  .00003566  00000+0  29729-3 0  9993
2 63261  97.6871  81.2273 0002748  73.8140 286.3386 14.99240847 71737
LEMUR-2-MARACHE-FRAN    
1 63262U 25052BE  26188.14529324  .00002737  00000+0  22321-3 0  9999
2 63262  97.6865  81.5468 0004512 290.2178  69.8560 15.00280659 71755
LEMUR-2-THEFALCONER     
1 63264U 25052BG  26188.52495061  .00002954  00000+0  25819-3 0  9999
2 63264  97.6846  80.5658 0000898  26.3470 333.7797 14.97535872 71730
LEMUR-2-UNTITLED-SC     
1 63351U 25061A   26188.45124778  .00002097  00000+0  12007-3 0  9995
2 63351  97.5648 163.6676 0018404 189.4039 170.6850 15.13613733 70653
LEMUR-2-ESPERANZA       
1 63352U 25061B   26188.36102578  .00003389  00000+0  19115-3 0  9992
2 63352  97.5652 163.6759 0018012 189.3073 170.7827 15.13720454 70646
LEMUR-2-KREMPEL-BRO2    
1 63353U 25061C   26188.38219450  .00002129  00000+0  12001-3 0  9991
2 63353  97.5702 164.2565 0019161 181.6004 178.5169 15.14144257 70669
LEMUR-2-THERMORAPTOR    
1 63354U 25061D   26188.42926385  .00002562  00000+0  14336-3 0  9993
2 63354  97.5706 164.3826 0018931 180.3649 179.7572 15.14226483 70674
LEMUR-2-NEUROSPICY      
1 63355U 25061E   26188.46546120  .00002707  00000+0  15088-3 0  9999
2 63355  97.5635 164.0292 0016679 183.0672 177.0461 15.14346479 70680
LEMUR-2-TILLINFINITY    
1 63356U 25061F   26188.36080622  .00002745  00000+0  15039-3 0  9997
2 63356  97.5620 164.2297 0018249 172.0497 188.1027 15.14927906 70692
LEMUR-2-KREMPEL-BRO1    
1 63357U 25061G   26188.40291932  .00002911  00000+0  16005-3 0  9990
2 63357  97.5621 164.1821 0018889 173.2750 186.8739 15.14737363 70692
LEMUR-2-LANGER2SPACE    
1 63358U 25061H   26188.49954691  .00002376  00000+0  13256-3 0  9998
2 63358  97.5624 164.0841 0016630 181.3139 178.8052 15.14430042 70693
LEMUR-2-BALTO           
1 63395U 25052BH  26188.19657571  .00003856  00000+0  31220-3 0  9998
2 63395  97.6926  81.5775 0005649 359.1139   1.0073 15.00313404 71768
LEMUR-2-KRISH           
1 64561U 25135AK  26188.27005823  .00004210  00000+0  37657-3 0  9997
2 64561  97.7760 303.0109 0001744 100.7810 259.3608 14.96401488 56929
LEMUR-2-HUBBLE-4        
1 64565U 25135AP  26188.23633059  .00001085  00000+0  10797-3 0  9998
2 64565  97.7713 301.9077 0001964 185.5472 174.5726 14.93668736 56861
LEMUR-2-SEJONG-2        
1 64586U 25135BL  26188.56093745  .00002166  00000+0  19396-3 0  9994
2 64586  97.7706 303.4461 0003223 253.1473 106.9396 14.96876328 56990
LEMUR-2-HUBBLE-5        
1 64840U 25135BT  26188.11404416  .00001323  00000+0  12888-3 0  9992
2 64840  97.7734 302.4471 0004095 270.5745  89.5005 14.94195154 56887
LEMUR-2-KARENDARRELL    
1 64841U 25135BU  26187.86049561  .00005890  00000+0  47253-3 0  9997
2 64841  97.7696 304.0402 0011589 131.2820 228.9403 15.00420938 56969
LEMUR-2-LUCILLE-ROSE    
1 65403U 25135BV  26188.43411924  .00004650  00000+0  37390-3 0  9996
2 65403  97.7717 304.6479 0013910 213.0258 147.0098 15.00426993 51673
LEMUR-2-AFFIE-WAUWIE    
1 66295U 25248C   26186.82496654  .00022785  00000+0  82702-3 0  9991
2 66295  45.3926  13.9564 0008364 202.7682 157.2838 15.27976863 37441
LEMUR-2-DEANANDMAEVE    
1 66678U 25276N   26188.19769696  .00004589  00000+0  21623-3 0  9995
2 66678  97.4199 261.3438 0004155 292.2862  67.7932 15.19993148 33456
LEMUR-2-STAS-GORBUK     
1 66686U 25276W   26188.15121066  .00004430  00000+0  21123-3 0  9993
2 66686  97.4234 261.3507 0003485 289.3119  70.7738 15.19603156 33443
LEMUR-2-TEODOR          
1 66768U 25276DG  26188.44195286  .00003734  00000+0  17010-3 0  9997
2 66768  97.4139 261.8986 0002348  96.3146 263.8357 15.21281439 33527
LEMUR-2-LAILA           
1 66776U 25276DQ  26188.14983786  .00004674  00000+0  21076-3 0  9994
2 66776  97.4163 261.7444 0002881 106.6204 253.5349 15.21504624 33489
LEMUR-2-CELIJO-SB-PK    
1 66781U 25276DW  26188.44804542  .00004168  00000+0  33756-3 0  9991
2 66781  97.5200 258.5581 0007402  83.3763 276.8303 15.00231883 25669
LEMUR-2-FINNIAN         
1 66782U 25276DX  26188.15331083  .00002687  00000+0  21743-3 0  9992
2 66782  97.5346 258.5193 0008124  28.2723 331.8940 15.00553278 22993
